ADRAS-J                 
1 58992U 24034A   24282.17518046  .00031947  00000+0  28024-2 0  9997
2 58992  98.2271 260.5237 0044446  39.3300 321.1133 14.95785754 34746
